EXPRESS 80              
1 45986U 20053B   24083.27428029 -.00000141  00000+0  00000+0 0  9998
2 45986   0.0306 255.2203 0001123 321.7303 143.0228  1.00272348 13458
BSAT-4B                 
1 46112U 20056A   24085.58381883 -.00000347  00000+0  00000+0 0  9993
2 46112   0.0405 139.9530 0002610 301.6444  61.9200  1.00270370 13244
MEV-2                   
1 46113U 20056B   24082.84355042 -.00000018  00000+0  00000+0 0  9993
2 46113   0.0274 252.7393 0000973 113.8181 116.9449  1.00271755 72442
GALAXY 30 (G-30)        
1 46114U 20056C   24085.15030505  .00000038  00000+0  00000+0 0  9996
2 46114   0.0245 175.9666 0002002 215.4826  80.7724  1.00271804 13242
GAOFEN-13 01            
1 46610U 20071A   24084.89511420 -.00000362  00000+0  00000+0 0  9995
2 46610   0.3997  86.8519 0012602 275.0517 260.8149  1.00267090 12752
TIANTONG-1 2            
1 46916U 20082A   24085.55375622 -.00000356  00000+0  00000+0 0  9995
2 46916   2.5536 293.2689 0001552  80.5841 133.8897  1.00268745 12484
LUCAS (JDRS-1)          
1 47202U 20089A   24085.56964730 -.00000232  00000+0  00000+0 0  9999
2 47202   0.0095 140.5484 0003422 218.5482 120.2671  1.00271836 12244
SXM-7                   
1 47240U 20096A   24083.17231361 -.00000210  00000+0  00000+0 0  9997
2 47240   0.0075  71.0234 0002257 100.1080 346.7915  1.00274237 12132
CMS-01                  
1 47256U 20099A   24085.56578860 -.00000162  00000+0  00000+0 0  9996
2 47256   0.0466  94.1740 0006632 193.3781 182.6218  1.00273507 12035
TURKSAT 5A              
1 47306U 21001A   24082.86785670  .00000147  00000+0  00000+0 0  9997
2 47306   0.0218 112.5707 0000145 136.6924 274.9072  1.00271787 11801
TIANTONG-1 3            
1 47321U 21003A   24085.56697221 -.00000155  00000+0  00000+0 0  9990
2 47321   3.0456 311.2061 0003641  39.0452 118.8760  1.00273416 11814
TJS-6                   
1 47613U 21010A   24084.64995531  .00000043  00000+0  00000+0 0  9990
2 47613   0.1622  82.6797 0001305 341.1858 171.1946  1.00272767 11645
SBIRS GEO-5 (USA 315)   
1 48618U 21042A   24082.91785667  .00000106  00000+0  00000+0 0  9996
2 48618   6.2838 325.5570 0002142  29.9015 176.7303  1.00273298 10547
FENGYUN 4B              
1 48808U 21047A   24085.65742656 -.00000328  00000+0  00000+0 0  9994
2 48808   0.2359 282.7377 0005725 210.4124  31.7876  1.00278053 10401
SXM-8                   
1 48838U 21049A   24082.50882788 -.00000215  00000+0  00000+0 0  9996
2 48838   0.0134 196.1797 0001623 193.8085 248.4455  1.00291788 10411
TIANLIAN 1-05           
1 49011U 21063A   24083.92483487  .00000105  00000+0  00000+0 0  9993
2 49011   0.5236 280.3125 0002368  64.1204 187.2022  1.00273389  9891
STAR ONE D2             
1 49055U 21069A   24082.88807858 -.00000271  00000+0  00000+0 0  9998
2 49055   0.0281 155.7359 0000823 219.9527  54.7984  1.00271128  9726
EUTELSAT QUANTUM        
1 49056U 21069B   24083.94568219  .00000123  00000+0  00000+0 0  9997
2 49056   0.0349 297.6604 0002295  63.0639 209.3117  1.00272550  9757
CHINASAT 2E (ZX 2E)     
1 49062U 21071A   24085.57444279 -.00000289  00000+0  00000+0 0  9991
2 49062   0.0506 352.6035 0001964 123.3043  12.4423  1.00274136  9878
TJS-7                   
1 49115U 21077A   24083.61591022 -.00000127  00000+0  00000+0 0  9999
2 49115   0.0949  72.8802 0000645 259.0082 331.9122  1.00270850  1399
CHINASAT 9B             
1 49125U 21080A   24085.57699480 -.00000309  00000+0  00000+0 0  9990
2 49125   0.0417  92.5696 0001429 242.2390 157.8227  1.00270307  9472
SHIJIAN-21 (SJ-21)      
1 49330U 21094A   24085.79232414 -.00000358  00000+0  00000+0 0  9991
2 49330   9.6561  45.8466 0079899  30.0450 153.7716  1.00354411  9092
SES-17                  
1 49332U 21095A   24082.88868774 -.00000279  00000+0  00000+0 0  9997
2 49332   0.0056  86.6032 0000714 287.7865  59.3009  1.00276436  9659
SYRACUSE 4A             
1 49333U 21095B   24082.53243841  .00000127  00000+0  00000+0 0  9993
2 49333   0.0221 182.0689 0001544 179.6928  55.9380  1.00269699  9763
QZS-1R                  
1 49336U 21096A   24084.89849300 -.00000218  00000+0  00000+0 0  9992
2 49336  35.7699  91.8033 0750436 269.8158 278.7546  1.00288912  8833
CHINASAT 1D (ZX 1D)     
1 49505U 21114A   24084.90093613 -.00000336  00000+0  00000+0 0  9992
2 49505   0.0523  84.2534 0000980  81.7243 111.3454  1.00270424  8662
STPSAT-6                
1 49817U 21118A   24085.15869442 -.00000045  00000+0  00000+0 0  9998
2 49817   0.0114 144.5272 0001084 216.5540 127.5078  1.00273239  8418
LDPE-1                  
1 49818U 21118B   24082.88955796 -.00000288  00000+0  00000+0 0  9993
2 49818   2.0079  88.8599 0006477 226.1613 123.5560  1.00630171  8449
EXPRESS AMU-7           
1 50001U 21123A   24084.09148058 -.00000245  00000+0  00000+0 0  9998
2 50001   0.0225 238.3665 0000551  46.5619  75.0497  1.00271757  8361
EXPRESS AMU-3           
1 50002U 21123B   24084.20785713 -.00000324  00000+0  00000+0 0  9995
2 50002   0.0156 227.1657 0000462  51.6205  81.1933  1.00272135  8354
TIANLIAN 2-02           
1 50005U 21124A   24084.77885796 -.00000015  00000+0  00000+0 0  9990
2 50005   0.8921 274.8598 0002690  67.6287 291.6202  1.00272077  8453
TURKSAT 5B              
1 50212U 21126A   24083.94128477  .00000143  00000+0  00000+0 0  9997
2 50212   0.0672 355.1827 0005372 341.9012 225.6762  1.00273709  8114
INMARSAT 6-F1           
1 50319U 21128A   24084.88130225 -.00000171  00000+0  00000+0 0  9997
2 50319   0.0209 207.2702 0000224 297.8292  78.7584  1.00269652  8073
SHIYAN 12 01 (SY-12 01) 
1 50321U 21129A   24085.77782627 -.00000036  00000+0  00000+0 0  9999
2 50321   1.5674  92.3748 0000500  28.6959  48.4175  1.00464866  8353
SHIYAN 12 02 (SY-12 02) 
1 50322U 21129B   24085.64627253  .00000050  00000+0  00000+0 0  9994
2 50322   1.5654  92.3803 0002302 211.5061 287.7579  1.00421038  8353
TJS-9                   
1 50574U 21135A   24084.90285582 -.00000299  00000+0  00000+0 0  9999
2 50574   0.0242 117.9363 0000856 282.5212 244.6105  1.00267999  8274
USA 324                 
1 51280U 22006A   24080.33868911 -.00000208  00000+0  00000+0 0  9998
2 51280   1.6011  89.7242 0000833 319.2269  38.9546  1.00396462  7895
USA 325                 
1 51281U 22006B   24080.42394150 -.00000373  00000+0  00000+0 0  9991
2 51281   0.1054  74.3757 0000619  81.6114 298.1585  1.00165384  7901
GOES 18                 
1 51850U 22021A   24083.57974191  .00000092  00000+0  00000+0 0  9995
2 51850   0.0175  13.2125 0000569 298.4807 301.5456  1.00273455  7622
CHINASAT 6D (ZX 6D)     
1 52255U 22038A   24084.14677243 -.00000356  00000+0  00000+0 0  9999
2 52255   0.0626 265.8856 0001571  59.7079  34.3806  1.00274213  7254
NILESAT 301             
1 52817U 22061A   24082.84910493 -.00000065  00000+0  00000+0 0  9998
2 52817   0.0193 355.8681 0006350   5.4292 118.2268  1.00268659  6551
CMS-02 (GSAT 24)        
1 52903U 22067A   24084.88140981 -.00000165  00000+0  00000+0 0  9994
2 52903   0.0482 263.7111 0005692 176.6425 142.8050  1.00271453  6446
MEASAT 3D               
1 52904U 22067B   24084.88415955 -.00000241  00000+0  00000+0 0  9996
2 52904   0.0499 337.3276 0003061   2.0518 253.2425  1.00273452  6475
SES-22                  
1 52933U 22071A   24083.58117389  .00000084  00000+0  00000+0 0  9993
2 52933   0.0179 113.2092 0001379 233.1289 269.4135  1.00273318  6367
WFOV (USA 332)          
1 52940U 22073A   24084.89586635 -.00000361  00000+0  00000+0 0  9991
2 52940   1.6064  89.2967 0002037 235.4513 299.8639  1.00269882  6205
TIANLIAN 2-03           
1 53100U 22078A   24083.23978590  .00000064  00000+0  00000+0 0  9996
2 53100   1.4493 279.1444 0002407  93.3615 265.6288  1.00271643  6370
SBIRS GEO-6 (USA 336)   
1 53355U 22092A   24084.91476177 -.00000297  00000+0  00000+0 0  9993
2 53355   4.7498 311.0115 0004202  45.1744 294.9681  1.00272401  6068
EUTELSAT KONNECT VHTS   
1 53765U 22110A   24083.86915580  .00000014  00000+0  00000+0 0  9994
2 53765   0.0572  96.9786 0002823 256.1335 144.2920  1.00270459  5619
CHINASAT 1E (ZX 1E)     
1 53813U 22112A   24085.56578829 -.00000147  00000+0  00000+0 0  9998
2 53813   0.0943 290.3470 0002061  66.2450 111.9768  1.00273415  5680
SES-20                  
1 53960U 22123A   24083.61146552 -.00000105  00000+0  00000+0 0  9995
2 53960   0.0128 162.0817 0001392 262.2160 234.3036  1.00269872  5365
SES-21                  
1 53961U 22123B   24085.22086934  .00000071  00000+0  00000+0 0  9993
2 53961   0.0170  92.7748 0001128 272.1445 126.7405  1.00270896  5382
GALAXY 33 (G-33)        
1 54026U 22128A   24085.17898771  .00000081  00000+0  00000+0 0  9996
2 54026   0.0211 125.7007 0001919 236.7228 112.1217  1.00272990  5588
GALAXY 34 (G-34)        
1 54027U 22128B   24085.14791853  .00000061  00000+0  00000+0 0  9995
2 54027   0.0207 127.6289 0001596 234.8627 104.8322  1.00271629  5617
ANGOSAT 2               
1 54033U 22131A   24082.69181715  .00000128  00000+0  00000+0 0  9997
2 54033   0.0095 158.7722 0000966 296.2688 357.6617  1.00272328  5279
EUTELSAT HOTBIRD 13F    
1 54048U 22134A   24082.68981562  .00000080  00000+0  00000+0 0  9990
2 54048   0.0650 294.5449 0003109  30.5268 116.9110  1.00273031  5256
LDPE-2                  
1 54219U 22144A   24085.12726583 -.00000178  00000+0  00000+0 0  9992
2 54219   3.6236  65.1425 0000811   1.7212  63.6678  1.00636053  3631
EUTELSAT HOTBIRD 13G    
1 54225U 22146A   24082.68981562  .00000080  00000+0  00000+0 0  9990
2 54225   0.0476 241.7614 0002397 355.4534 204.7726  1.00273124  5038
CHINASAT 19 (ZX 19)     
1 54230U 22148A   24084.35062142 -.00000081  00000+0  00000+0 0  9990
2 54230   0.0193 247.2395 0005188  25.2662 199.4072  1.00271699  5200
GALAXY 31 (G-31)        
1 54243U 22153A   24085.15289696  .00000015  00000+0  00000+0 0  9990
2 54243   0.0201 178.3410 0001711 177.9945 120.7927  1.00272812  4992
